[{"OBJECT_NAME":"STARLINK-11475 [DTC]","OBJECT_ID":"2024-231J","EPOCH":"2026-03-09T13:29:40.706016","MEAN_MOTION":15.69749378,"ECCENTRICITY":0.0001752,"INCLINATION":53.1577,"RA_OF_ASC_NODE":101.7338,"ARG_OF_PERICENTER":32.3332,"MEAN_ANOMALY":327.7793,"EPHEMERIS_TYPE":0,"CLASSIFICATION_TYPE":"U","NORAD_CAT_ID":62226,"ELEMENT_SET_NO":999,"REV_AT_EPOCH":7339,"BSTAR":0.0010446,"MEAN_MOTION_DOT":0.00128147,"MEAN_MOTION_DDOT":0},{"OBJECT_NAME":"COSMOS 921 DEB","OBJECT_ID":"1977-055C","EPOCH":"2026-03-09T22:42:10.805760","MEAN_MOTION":15.70063735,"ECCENTRICITY":0.00183564,"INCLINATION":75.8082,"RA_OF_ASC_NODE":161.9867,"ARG_OF_PERICENTER":333.9317,"MEAN_ANOMALY":26.0991,"EPHEMERIS_TYPE":0,"CLASSIFICATION_TYPE":"U","NORAD_CAT_ID":39690,"ELEMENT_SET_NO":999,"REV_AT_EPOCH":65481,"BSTAR":0.0010474937,"MEAN_MOTION_DOT":0.0012919,"MEAN_MOTION_DDOT":0}]
